[{"OBJECT_NAME":"ELEKTRO-L 2","OBJECT_ID":"2015-074A","EPOCH":"2026-03-29T04:24:29.409408","MEAN_MOTION":1.00271812,"ECCENTRICITY":0.0002847,"INCLINATION":6.494,"RA_OF_ASC_NODE":71.4927,"ARG_OF_PERICENTER":246.003,"MEAN_ANOMALY":280.7222,"EPHEMERIS_TYPE":0,"CLASSIFICATION_TYPE":"U","NORAD_CAT_ID":41105,"ELEMENT_SET_NO":999,"REV_AT_EPOCH":3770,"BSTAR":0,"MEAN_MOTION_DOT":-1.31e-6,"MEAN_MOTION_DDOT":0},{"OBJECT_NAME":"DAMPE","OBJECT_ID":"2015-078A","EPOCH":"2026-03-29T02:05:25.855584","MEAN_MOTION":15.30565998,"ECCENTRICITY":0.001238,"INCLINATION":97.4589,"RA_OF_ASC_NODE":93.1665,"ARG_OF_PERICENTER":8.9424,"MEAN_ANOMALY":351.2035,"EPHEMERIS_TYPE":0,"CLASSIFICATION_TYPE":"U","NORAD_CAT_ID":41173,"ELEMENT_SET_NO":999,"REV_AT_EPOCH":57229,"BSTAR":5.0068e-5,"MEAN_MOTION_DOT":1.404e-5,"MEAN_MOTION_DDOT":0},{"OBJECT_NAME":"ORBCOMM FM114","OBJECT_ID":"2015-081A","EPOCH":"2026-03-29T02:53:09.003840","MEAN_MOTION":14.58760641,"ECCENTRICITY":0.0002231,"INCLINATION":47.0064,"RA_OF_ASC_NODE":20.5228,"ARG_OF_PERICENTER":212.621,"MEAN_ANOMALY":147.4538,"EPHEMERIS_TYPE":0,"CLASSIFICATION_TYPE":"U","NORAD_CAT_ID":41179,"ELEMENT_SET_NO":999,"REV_AT_EPOCH":54606,"BSTAR":0.00017617,"MEAN_MOTION_DOT":6.6e-6,"MEAN_MOTION_DDOT":0},{"OBJECT_NAME":"ORBCOMM FM110","OBJECT_ID":"2015-081D","EPOCH":"2026-03-29T02:37:30.794016","MEAN_MOTION":14.58769502,"ECCENTRICITY":0.0002498,"INCLINATION":47.0037,"RA_OF_ASC_NODE":20.0408,"ARG_OF_PERICENTER":50.7933,"MEAN_ANOMALY":309.3174,"EPHEMERIS_TYPE":0,"CLASSIFICATION_TYPE":"U","NORAD_CAT_ID":41182,"ELEMENT_SET_NO":999,"REV_AT_EPOCH":54593,"BSTAR":0.00023363,"MEAN_MOTION_DOT":9.31e-6,"MEAN_MOTION_DDOT":0},{"OBJECT_NAME":"ORBCOMM FM112","OBJECT_ID":"2015-081F","EPOCH":"2026-03-29T00:14:17.685024","MEAN_MOTION":14.58769677,"ECCENTRICITY":0.0002049,"INCLINATION":46.9987,"RA_OF_ASC_NODE":289.3231,"ARG_OF_PERICENTER":204.5059,"MEAN_ANOMALY":155.5729,"EPHEMERIS_TYPE":0,"CLASSIFICATION_TYPE":"U","NORAD_CAT_ID":41184,"ELEMENT_SET_NO":999,"REV_AT_EPOCH":54724,"BSTAR":0.00018707,"MEAN_MOTION_DOT":7.12e-6,"MEAN_MOTION_DDOT":0},{"OBJECT_NAME":"ORBCOMM FM113","OBJECT_ID":"2015-081G","EPOCH":"2026-03-28T23:41:32.853120","MEAN_MOTION":14.58762896,"ECCENTRICITY":0.0001762,"INCLINATION":47.0004,"RA_OF_ASC_NODE":289.8019,"ARG_OF_PERICENTER":215.0576,"MEAN_ANOMALY":145.0194,"EPHEMERIS_TYPE":0,"CLASSIFICATION_TYPE":"U","NORAD_CAT_ID":41185,"ELEMENT_SET_NO":999,"REV_AT_EPOCH":54722,"BSTAR":0.00015402,"MEAN_MOTION_DOT":5.56e-6,"MEAN_MOTION_DDOT":0},{"OBJECT_NAME":"ORBCOMM FM108","OBJECT_ID":"2015-081J","EPOCH":"2026-03-29T00:26:33.634176","MEAN_MOTION":14.58770829,"ECCENTRICITY":0.0003103,"INCLINATION":47.0048,"RA_OF_ASC_NODE":201.2013,"ARG_OF_PERICENTER":202.4503,"MEAN_ANOMALY":157.6247,"EPHEMERIS_TYPE":0,"CLASSIFICATION_TYPE":"U","NORAD_CAT_ID":41187,"ELEMENT_SET_NO":999,"REV_AT_EPOCH":54837,"BSTAR":0.00018994,"MEAN_MOTION_DOT":7.25e-6,"MEAN_MOTION_DDOT":0},{"OBJECT_NAME":"ORBCOMM FM117","OBJECT_ID":"2015-081K","EPOCH":"2026-03-28T17:02:11.409792","MEAN_MOTION":14.58766807,"ECCENTRICITY":0.00035853,"INCLINATION":47.0008,"RA_OF_ASC_NODE":201.3189,"ARG_OF_PERICENTER":205.3094,"MEAN_ANOMALY":154.7617,"EPHEMERIS_TYPE":0,"CLASSIFICATION_TYPE":"U","NORAD_CAT_ID":41188,"ELEMENT_SET_NO":999,"REV_AT_EPOCH":54837,"BSTAR":0.00021171557,"MEAN_MOTION_DOT":8.28e-6,"MEAN_MOTION_DDOT":0},{"OBJECT_NAME":"ORBCOMM FM116","OBJECT_ID":"2015-081L","EPOCH":"2026-03-28T19:51:51.414624","MEAN_MOTION":14.58766209,"ECCENTRICITY":0.00013079,"INCLINATION":47.002,"RA_OF_ASC_NODE":290.5495,"ARG_OF_PERICENTER":45.4223,"MEAN_ANOMALY":314.6769,"EPHEMERIS_TYPE":0,"CLASSIFICATION_TYPE":"U","NORAD_CAT_ID":41189,"ELEMENT_SET_NO":999,"REV_AT_EPOCH":54720,"BSTAR":0.00017507763,"MEAN_MOTION_DOT":6.55e-6,"MEAN_MOTION_DDOT":0},{"OBJECT_NAME":"CHUBUSAT-2","OBJECT_ID":"2016-012B","EPOCH":"2026-03-29T04:29:20.020128","MEAN_MOTION":15.20017023,"ECCENTRICITY":0.0008647,"INCLINATION":30.9973,"RA_OF_ASC_NODE":126.0535,"ARG_OF_PERICENTER":339.0962,"MEAN_ANOMALY":20.9324,"EPHEMERIS_TYPE":0,"CLASSIFICATION_TYPE":"U","NORAD_CAT_ID":41338,"ELEMENT_SET_NO":999,"REV_AT_EPOCH":55623,"BSTAR":0.00037008,"MEAN_MOTION_DOT":8.305e-5,"MEAN_MOTION_DDOT":0},{"OBJECT_NAME":"CHUBUSAT-3","OBJECT_ID":"2016-012C","EPOCH":"2026-03-29T04:39:26.815104","MEAN_MOTION":15.17848241,"ECCENTRICITY":0.0009033,"INCLINATION":31.0047,"RA_OF_ASC_NODE":133.739,"ARG_OF_PERICENTER":329.1459,"MEAN_ANOMALY":30.865,"EPHEMERIS_TYPE":0,"CLASSIFICATION_TYPE":"U","NORAD_CAT_ID":41339,"ELEMENT_SET_NO":999,"REV_AT_EPOCH":55603,"BSTAR":0.00032192,"MEAN_MOTION_DOT":6.799e-5,"MEAN_MOTION_DDOT":0},{"OBJECT_NAME":"HORYU-4","OBJECT_ID":"2016-012D","EPOCH":"2026-03-28T20:34:56.596800","MEAN_MOTION":15.66645055,"ECCENTRICITY":0.00055457,"INCLINATION":30.991,"RA_OF_ASC_NODE":293.5854,"ARG_OF_PERICENTER":336.7446,"MEAN_ANOMALY":23.2957,"EPHEMERIS_TYPE":0,"CLASSIFICATION_TYPE":"U","NORAD_CAT_ID":41340,"ELEMENT_SET_NO":999,"REV_AT_EPOCH":55811,"BSTAR":0.0010961283,"MEAN_MOTION_DOT":0.00121486,"MEAN_MOTION_DDOT":0},{"OBJECT_NAME":"ZIYUAN 3-02 (ZY 3-02)","OBJECT_ID":"2016-033A","EPOCH":"2026-03-29T05:01:35.074272","MEAN_MOTION":15.21225347,"ECCENTRICITY":0.0012952,"INCLINATION":97.3875,"RA_OF_ASC_NODE":165.5038,"ARG_OF_PERICENTER":211.037,"MEAN_ANOMALY":149.0102,"EPHEMERIS_TYPE":0,"CLASSIFICATION_TYPE":"U","NORAD_CAT_ID":41556,"ELEMENT_SET_NO":999,"REV_AT_EPOCH":54582,"BSTAR":0.00035715,"MEAN_MOTION_DOT":7.922e-5,"MEAN_MOTION_DDOT":0},{"OBJECT_NAME":"CARTOSAT-2C","OBJECT_ID":"2016-040A","EPOCH":"2026-03-29T04:01:10.322112","MEAN_MOTION":15.19255483,"ECCENTRICITY":0.0010042,"INCLINATION":97.4574,"RA_OF_ASC_NODE":149.2098,"ARG_OF_PERICENTER":59.3661,"MEAN_ANOMALY":300.8562,"EPHEMERIS_TYPE":0,"CLASSIFICATION_TYPE":"U","NORAD_CAT_ID":41599,"ELEMENT_SET_NO":999,"REV_AT_EPOCH":54156,"BSTAR":0.00025892,"MEAN_MOTION_DOT":5.396e-5,"MEAN_MOTION_DDOT":0},{"OBJECT_NAME":"LAPAN-A3","OBJECT_ID":"2016-040E","EPOCH":"2026-03-29T03:45:52.245216","MEAN_MOTION":15.32549361,"ECCENTRICITY":0.0008769,"INCLINATION":97.1488,"RA_OF_ASC_NODE":86.9688,"ARG_OF_PERICENTER":309.7545,"MEAN_ANOMALY":50.2924,"EPHEMERIS_TYPE":0,"CLASSIFICATION_TYPE":"U","NORAD_CAT_ID":41603,"ELEMENT_SET_NO":999,"REV_AT_EPOCH":54255,"BSTAR":0.00014207,"MEAN_MOTION_DOT":4.394e-5,"MEAN_MOTION_DDOT":0},{"OBJECT_NAME":"GAOFEN-3","OBJECT_ID":"2016-049A","EPOCH":"2026-03-29T03:51:21.959712","MEAN_MOTION":14.42220731,"ECCENTRICITY":0.0001663,"INCLINATION":98.4054,"RA_OF_ASC_NODE":97.1456,"ARG_OF_PERICENTER":76.287,"MEAN_ANOMALY":283.8505,"EPHEMERIS_TYPE":0,"CLASSIFICATION_TYPE":"U","NORAD_CAT_ID":41727,"ELEMENT_SET_NO":999,"REV_AT_EPOCH":50711,"BSTAR":2.8035e-5,"MEAN_MOTION_DOT":4.9e-7,"MEAN_MOTION_DDOT":0},{"OBJECT_NAME":"PRATHAM","OBJECT_ID":"2016-059A","EPOCH":"2026-03-28T21:40:15.952224","MEAN_MOTION":14.67073547,"ECCENTRICITY":0.0032665,"INCLINATION":97.8327,"RA_OF_ASC_NODE":88.2983,"ARG_OF_PERICENTER":113.3226,"MEAN_ANOMALY":247.1422,"EPHEMERIS_TYPE":0,"CLASSIFICATION_TYPE":"U","NORAD_CAT_ID":41783,"ELEMENT_SET_NO":999,"REV_AT_EPOCH":50774,"BSTAR":0.00017291,"MEAN_MOTION_DOT":9.31e-6,"MEAN_MOTION_DDOT":0}]
