ELEKTRO-L 2             
1 41105U 15074A   26088.18367372 -.00000131  00000+0  00000+0 0  9993
2 41105   6.4940  71.4927 0002847 246.0030 280.7222  1.00271812 37704
DAMPE                   
1 41173U 15078A   26088.08710481  .00001404  00000+0  50068-4 0  9991
2 41173  97.4589  93.1665 0012380   8.9424 351.2035 15.30565998572296
ORBCOMM FM114           
1 41179U 15081A   26088.12024310  .00000660  00000+0  17617-3 0  9990
2 41179  47.0064  20.5228 0002231 212.6210 147.4538 14.58760641546061
ORBCOMM FM110           
1 41182U 15081D   26088.10938419  .00000931  00000+0  23363-3 0  9992
2 41182  47.0037  20.0408 0002498  50.7933 309.3174 14.58769502545933
ORBCOMM FM112           
1 41184U 15081F   26088.00992691  .00000712  00000+0  18707-3 0  9998
2 41184  46.9987 289.3231 0002049 204.5059 155.5729 14.58769677547247
ORBCOMM FM113           
1 41185U 15081G   26087.98718580  .00000556  00000+0  15402-3 0  9993
2 41185  47.0004 289.8019 0001762 215.0576 145.0194 14.58762896547225
ORBCOMM FM108           
1 41187U 15081J   26088.01844484  .00000725  00000+0  18994-3 0  9990
2 41187  47.0048 201.2013 0003103 202.4503 157.6247 14.58770829548378
ORBCOMM FM117           
1 41188U 15081K   26087.70985428  .00000828  00000+0  21172-3 0  9996
2 41188  47.0008 201.3189 0003585 205.3094 154.7617 14.58766807548371
ORBCOMM FM116           
1 41189U 15081L   26087.82767841  .00000655  00000+0  17508-3 0  9993
2 41189  47.0020 290.5495 0001307  45.4223 314.6769 14.58766209547205
CHUBUSAT-2              
1 41338U 16012B   26088.18703727  .00008305  00000+0  37008-3 0  9994
2 41338  30.9973 126.0535 0008647 339.0962  20.9324 15.20017023556233
CHUBUSAT-3              
1 41339U 16012C   26088.19406036  .00006799  00000+0  32192-3 0  9993
2 41339  31.0047 133.7390 0009033 329.1459  30.8650 15.17848241556033
HORYU-4                 
1 41340U 16012D   26087.85759950  .00121486  00000+0  10961-2 0  9993
2 41340  30.9910 293.5854 0005545 336.7446  23.2957 15.66645055558115
ZIYUAN 3-02 (ZY 3-02)   
1 41556U 16033A   26088.20943373  .00007922  00000+0  35715-3 0  9992
2 41556  97.3875 165.5038 0012952 211.0370 149.0102 15.21225347545826
CARTOSAT-2C             
1 41599U 16040A   26088.16748058  .00005396  00000+0  25892-3 0  9993
2 41599  97.4574 149.2098 0010042  59.3661 300.8562 15.19255483541564
LAPAN-A3                
1 41603U 16040E   26088.15685469  .00004394  00000+0  14207-3 0  9999
2 41603  97.1488  86.9688 0008769 309.7545  50.2924 15.32549361542553
GAOFEN-3                
1 41727U 16049A   26088.16067083  .00000049  00000+0  28035-4 0  9990
2 41727  98.4054  97.1456 0001663  76.2870 283.8505 14.42220731507112
PRATHAM                 
1 41783U 16059A   26087.90296241  .00000931  00000+0  17291-3 0  9995
2 41783  97.8327  88.2983 0032665 113.3226 247.1422 14.67073547507748
